{"type": "FeatureCollection", "features": [ {"type": "Feature", "properties": {"norad_id": 42741, "name": "EUTELSAT 172B", "group": "eutelsat", "lat": -0.0025364123185726583, "lon": -53.683364469675276, "alt_km": 35785.5301840274, "timestamp": "2025-12-07T03:52:32.142427+00:00", "meta": {"OBJECT_NAME": "EUTELSAT 172B", "OBJECT_ID": "2017-029B", "EPOCH": "2025-12-06T14:34:38.434656", "MEAN_MOTION": 1.00270128, "ECCENTRICITY": 2.364e-05, "INCLINATION": 0.0108, "RA_OF_ASC_NODE": 86.2078, "ARG_OF_PERICENTER": 221.3143, "MEAN_ANOMALY": 158.7869, "EPHEMERIS_TYPE": 0, "CLASSIFICATION_TYPE": "U", "NORAD_CAT_ID": 42741, "ELEMENT_SET_NO": 999, "REV_AT_EPOCH": 3180, "BSTAR": 0, "MEAN_MOTION_DOT": 1e-08, "MEAN_MOTION_DDOT": 0}, "tle": {"line1": "1 42741U 17029B   25340.60738929  .00000001  00000+0  00000+0 0  9994", "line2": "2 42741   0.0108  86.2078 0000236 221.3143 158.7869  1.00270128 31804"}}, "geometry": {"type": "Point", "coordinates": [-53.683364469675276, -0.0025364123185726583]}}, {"type": "Feature", "properties": {"norad_id": 44334, "name": "EUTELSAT 7C", "group": "eutelsat", "lat": -0.04304393827209046, "lon": 141.25206212075338, "alt_km": 35788.68781211459, "timestamp": "2025-12-07T03:52:32.142454+00:00", "meta": {"OBJECT_NAME": "EUTELSAT 7C", "OBJECT_ID": "2019-034B", "EPOCH": "2025-12-06T03:25:30.364320", "MEAN_MOTION": 1.00270039, "ECCENTRICITY": 0.00034504, "INCLINATION": 0.0751, "RA_OF_ASC_NODE": 179.1623, "ARG_OF_PERICENTER": 60.529, "MEAN_ANOMALY": 253.8532, "EPHEMERIS_TYPE": 0, "CLASSIFICATION_TYPE": "U", "NORAD_CAT_ID": 44334, "ELEMENT_SET_NO": 999, "REV_AT_EPOCH": 490, "BSTAR": 0, "MEAN_MOTION_DOT": 5.6e-07, "MEAN_MOTION_DDOT": 0}, "tle": {"line1": "1 44334U 19034B   25340.14271255  .00000056  00000+0  00000+0 0  9995", "line2": "2 44334   0.0751 179.1623 0003450  60.5290 253.8532  1.00270039  4909"}}, "geometry": {"type": "Point", "coordinates": [141.25206212075338, -0.04304393827209046]}}, {"type": "Feature", "properties": {"norad_id": 44624, "name": "EUTELSAT 5 WEST B", "group": "eutelsat", "lat": 0.040189434961984453, "lon": 129.28257118350115, "alt_km": 35795.559973805364, "timestamp": "2025-12-07T03:52:32.142473+00:00", "meta": {"OBJECT_NAME": "EUTELSAT 5 WEST B", "OBJECT_ID": "2019-067A", "EPOCH": "2025-12-06T08:30:19.232064", "MEAN_MOTION": 1.00270407, "ECCENTRICITY": 0.00035896, "INCLINATION": 0.0672, "RA_OF_ASC_NODE": 334.8834, "ARG_OF_PERICENTER": 281.2094, "MEAN_ANOMALY": 301.8866, "EPHEMERIS_TYPE": 0, "CLASSIFICATION_TYPE": "U", "NORAD_CAT_ID": 44624, "ELEMENT_SET_NO": 999, "REV_AT_EPOCH": 2250, "BSTAR": 0, "MEAN_MOTION_DOT": -3.5e-07, "MEAN_MOTION_DDOT": 0}, "tle": {"line1": "1 44624U 19067A   25340.35438926 -.00000035  00000+0  00000+0 0  9994", "line2": "2 44624   0.0672 334.8834 0003589 281.2094 301.8866  1.00270407 22503"}}, "geometry": {"type": "Point", "coordinates": [129.28257118350115, 0.040189434961984453]}}, {"type": "Feature", "properties": {"norad_id": 45027, "name": "EUTELSAT KONNECT", "group": "eutelsat", "lat": 0.05649963672306614, "lon": 141.47308525535163, "alt_km": 35793.41343613006, "timestamp": "2025-12-07T03:52:32.142486+00:00", "meta": {"OBJECT_NAME": "EUTELSAT KONNECT", "OBJECT_ID": "2020-005B", "EPOCH": "2025-12-05T22:17:29.870880", "MEAN_MOTION": 1.00267987, "ECCENTRICITY": 0.00018557, "INCLINATION": 0.0712, "RA_OF_ASC_NODE": 98.3329, "ARG_OF_PERICENTER": 187.648, "MEAN_ANOMALY": 130.555, "EPHEMERIS_TYPE": 0, "CLASSIFICATION_TYPE": "U", "NORAD_CAT_ID": 45027, "ELEMENT_SET_NO": 999, "REV_AT_EPOCH": 2238, "BSTAR": 0, "MEAN_MOTION_DOT": 5.8e-07, "MEAN_MOTION_DDOT": 0}, "tle": {"line1": "1 45027U 20005B   25339.92881795  .00000058  00000+0  00000+0 0  9997", "line2": "2 45027   0.0712  98.3329 0001855 187.6480 130.5550  1.00267987 22381"}}, "geometry": {"type": "Point", "coordinates": [141.47308525535163, 0.05649963672306614]}}, {"type": "Feature", "properties": {"norad_id": 49056, "name": "EUTELSAT QUANTUM", "group": "eutelsat", "lat": 0.010011744429699203, "lon": -178.0290992996166, "alt_km": 35785.24278944653, "timestamp": "2025-12-07T03:52:32.142499+00:00", "meta": {"OBJECT_NAME": "EUTELSAT QUANTUM", "OBJECT_ID": "2021-069B", "EPOCH": "2025-12-06T13:53:33.274176", "MEAN_MOTION": 1.0027055, "ECCENTRICITY": 0.00037127, "INCLINATION": 0.0267, "RA_OF_ASC_NODE": 41.909, "ARG_OF_PERICENTER": 226.1058, "MEAN_ANOMALY": 63.6905, "EPHEMERIS_TYPE": 0, "CLASSIFICATION_TYPE": "U", "NORAD_CAT_ID": 49056, "ELEMENT_SET_NO": 999, "REV_AT_EPOCH": 1599, "BSTAR": 0, "MEAN_MOTION_DOT": 1.33e-06, "MEAN_MOTION_DDOT": 0}, "tle": {"line1": "1 49056U 21069B   25340.57885734  .00000133  00000+0  00000+0 0  9998", "line2": "2 49056   0.0267  41.9090 0003712 226.1058  63.6905  1.00270550 15994"}}, "geometry": {"type": "Point", "coordinates": [-178.0290992996166, 0.010011744429699203]}}, {"type": "Feature", "properties": {"norad_id": 53765, "name": "EUTELSAT KONNECT VHTS", "group": "eutelsat", "lat": 0.0414808570621463, "lon": 136.97897211958693, "alt_km": 35788.44664544411, "timestamp": "2025-12-07T03:52:32.142512+00:00", "meta": {"OBJECT_NAME": "EUTELSAT KONNECT VHTS", "OBJECT_ID": "2022-110A", "EPOCH": "2025-12-06T08:32:34.016928", "MEAN_MOTION": 1.00269283, "ECCENTRICITY": 0.00027008, "INCLINATION": 0.0618, "RA_OF_ASC_NODE": 107.6328, "ARG_OF_PERICENTER": 127.7681, "MEAN_ANOMALY": 330.8385, "EPHEMERIS_TYPE": 0, "CLASSIFICATION_TYPE": "U", "NORAD_CAT_ID": 53765, "ELEMENT_SET_NO": 999, "REV_AT_EPOCH": 489, "BSTAR": 0, "MEAN_MOTION_DOT": 2.4e-07, "MEAN_MOTION_DDOT": 0}, "tle": {"line1": "1 53765U 22110A   25340.35594927  .00000024  00000+0  00000+0 0  9994", "line2": "2 53765   0.0618 107.6328 0002700 127.7681 330.8385  1.00269283  4893"}}, "geometry": {"type": "Point", "coordinates": [136.97897211958693, 0.0414808570621463]}}, {"type": "Feature", "properties": {"norad_id": 54048, "name": "EUTELSAT HOTBIRD 13F", "group": "eutelsat", "lat": -0.022716718731766186, "lon": 147.32730138675493, "alt_km": 35795.019747836704, "timestamp": "2025-12-07T03:52:32.142524+00:00", "meta": {"OBJECT_NAME": "EUTELSAT HOTBIRD 13F", "OBJECT_ID": "2022-134A", "EPOCH": "2025-12-06T01:44:32.536320", "MEAN_MOTION": 1.00271355, "ECCENTRICITY": 0.00023431, "INCLINATION": 0.0469, "RA_OF_ASC_NODE": 294.3782, "ARG_OF_PERICENTER": 57.7205, "MEAN_ANOMALY": 122.1557, "EPHEMERIS_TYPE": 0, "CLASSIFICATION_TYPE": "U", "NORAD_CAT_ID": 54048, "ELEMENT_SET_NO": 999, "REV_AT_EPOCH": 1144, "BSTAR": 0, "MEAN_MOTION_DOT": 9.6e-07, "MEAN_MOTION_DDOT": 0}, "tle": {"line1": "1 54048U 22134A   25340.07259880  .00000096  00000+0  00000+0 0  9999", "line2": "2 54048   0.0469 294.3782 0002343  57.7205 122.1557  1.00271355 11442"}}, "geometry": {"type": "Point", "coordinates": [147.32730138675493, -0.022716718731766186]}}, {"type": "Feature", "properties": {"norad_id": 54225, "name": "EUTELSAT HOTBIRD 13G", "group": "eutelsat", "lat": -0.030834089246699132, "lon": 147.28881586660071, "alt_km": 35780.25701281915, "timestamp": "2025-12-07T03:52:32.142536+00:00", "meta": {"OBJECT_NAME": "EUTELSAT HOTBIRD 13G", "OBJECT_ID": "2022-146A", "EPOCH": "2025-12-05T15:28:18.292224", "MEAN_MOTION": 1.00270321, "ECCENTRICITY": 0.00019255, "INCLINATION": 0.0461, "RA_OF_ASC_NODE": 235.0424, "ARG_OF_PERICENTER": 313.1322, "MEAN_ANOMALY": 131.5912, "EPHEMERIS_TYPE": 0, "CLASSIFICATION_TYPE": "U", "NORAD_CAT_ID": 54225, "ELEMENT_SET_NO": 999, "REV_AT_EPOCH": 552, "BSTAR": 0, "MEAN_MOTION_DOT": 9.7e-07, "MEAN_MOTION_DDOT": 0}, "tle": {"line1": "1 54225U 22146A   25339.64465616  .00000097  00000+0  00000+0 0  9997", "line2": "2 54225   0.0461 235.0424 0001925 313.1322 131.5912  1.00270321  5523"}}, "geometry": {"type": "Point", "coordinates": [147.28881586660071, -0.030834089246699132]}}, {"type": "Feature", "properties": {"norad_id": 54259, "name": "EUTELSAT 10B", "group": "eutelsat", "lat": 0.046605677135696744, "lon": 144.2879863606766, "alt_km": 35783.68857996567, "timestamp": "2025-12-07T03:52:32.142549+00:00", "meta": {"OBJECT_NAME": "EUTELSAT 10B", "OBJECT_ID": "2022-157A", "EPOCH": "2025-12-06T11:59:51.663264", "MEAN_MOTION": 1.00267497, "ECCENTRICITY": 0.00010834, "INCLINATION": 0.0622, "RA_OF_ASC_NODE": 103.1735, "ARG_OF_PERICENTER": 79.93, "MEAN_ANOMALY": 82.3904, "EPHEMERIS_TYPE": 0, "CLASSIFICATION_TYPE": "U", "NORAD_CAT_ID": 54259, "ELEMENT_SET_NO": 999, "REV_AT_EPOCH": 1109, "BSTAR": 0, "MEAN_MOTION_DOT": 7.5e-07, "MEAN_MOTION_DDOT": 0}, "tle": {"line1": "1 54259U 22157A   25340.49990351  .00000075  00000+0  00000+0 0  9996", "line2": "2 54259   0.0622 103.1735 0001083  79.9300  82.3904  1.00267497 11090"}}, "geometry": {"type": "Point", "coordinates": [144.2879863606766, 0.046605677135696744]}}, {"type": "Feature", "properties": {"norad_id": 59346, "name": "EUTELSAT 36D", "group": "eutelsat", "lat": -0.0039463647599241635, "lon": 170.1800678186666, "alt_km": 35788.45740475108, "timestamp": "2025-12-07T03:52:32.142561+00:00", "meta": {"OBJECT_NAME": "EUTELSAT 36D", "OBJECT_ID": "2024-059A", "EPOCH": "2025-12-05T21:12:21.661920", "MEAN_MOTION": 1.00272563, "ECCENTRICITY": 7.535e-05, "INCLINATION": 0.0214, "RA_OF_ASC_NODE": 349.7189, "ARG_OF_PERICENTER": 331.5769, "MEAN_ANOMALY": 107.5891, "EPHEMERIS_TYPE": 0, "CLASSIFICATION_TYPE": "U", "NORAD_CAT_ID": 59346, "ELEMENT_SET_NO": 999, "REV_AT_EPOCH": 620, "BSTAR": 0, "MEAN_MOTION_DOT": 0, "MEAN_MOTION_DDOT": 0}, "tle": {"line1": "1 59346U 24059A   25339.88358405  .00000000  00000+0  00000+0 0  9998", "line2": "2 59346   0.0214 349.7189 0000753 331.5769 107.5891  1.00272563  6201"}}, "geometry": {"type": "Point", "coordinates": [170.1800678186666, -0.0039463647599241635]}}]}